NORAD_CAT_ID,OBJECT_NAME,OBJECT_TYPE,EPOCH,MEAN_MOTION,ECCENTRICITY,INCLINATION,RA_OF_ASC_NODE,ARG_OF_PERICENTER,MEAN_ANOMALY,BSTAR,MEAN_MOTION_DOT,MEAN_MOTION_DDOT,TLE_LINE0,TLE_LINE1,TLE_LINE2,SEMIMAJOR_AXIS,PERIOD,APOGEE,PERIGEE,DECAYED
53571.0,STARLINK-4584,PAYLOAD,2024-04-20 10:34:02,15.08852611,0.0001213,53.2168,263.7305,125.4962,234.6143,0.00010207,1.337e-05,0.0,0 STARLINK-4584,1 53571U 22101AW  24111.44031066  .00001337  00000-0  10207-3 0  9997,2 53571  53.2168 263.7305 0001213 125.4962 234.6143 15.08852611 92540,6917.842,95.437,540.546,538.868,0.0
53571.0,STARLINK-4584,PAYLOAD,2024-04-20 13:44:48,15.08855183,0.0001572,53.2165,263.1387,116.7929,243.3224,0.00016566,2.351e-05,0.0,0 STARLINK-4584,1 53571U 22101AW  24111.57278669  .00002351  00000-0  16566-3 0  9994,2 53571  53.2165 263.1387 0001572 116.7929 243.3224 15.08855183 93258,6917.834,95.437,540.786,538.611,0.0
53571.0,STARLINK-4584,PAYLOAD,2024-04-20 16:55:35,15.08856521,0.0001609,53.2172,262.5488,97.4354,262.6821,0.00022779,3.341e-05,0.0,0 STARLINK-4584,1 53571U 22101AW  24111.70526710  .00003341  00000-0  22779-3 0  9995,2 53571  53.2172 262.5488 0001609  97.4354 262.6821 15.08856521 93275,6917.83,95.437,540.808,538.582,0.0
53571.0,STARLINK-4584,PAYLOAD,2024-04-21 13:35:36,15.08839717,0.0001617,53.2173,258.6803,106.7506,253.3664,-0.00016772,-2.956e-05,0.0,0 STARLINK-4584,1 53571U 22101AW  24112.56639344 -.00002956  00000-0 -16772-3 0  9997,2 53571  53.2173 258.6803 0001617 106.7506 253.3664 15.08839717 93400,6917.881,95.438,540.865,538.628,0.0
53571.0,STARLINK-4584,PAYLOAD,2024-04-21 16:46:22,15.08844048,0.0001689,53.2177,258.0859,106.6055,253.5123,-4.1971e-05,-9.56e-06,0.0,0 STARLINK-4584,1 53571U 22101AW  24112.69887199 -.00000956  00000-0 -41971-4 0  9992,2 53571  53.2177 258.0859 0001689 106.6055 253.5123 15.08844048 93423,6917.868,95.437,540.901,538.565,0.0
53571.0,STARLINK-4584,PAYLOAD,2024-04-22 15:01:47,15.08833074,0.0001936,53.2186,253.9247,110.2132,249.9068,-3.6153e-05,-8.63e-06,0.0,0 STARLINK-4584,1 53571U 22101AW  24113.62624121 -.00000863  00000-0 -36153-4 0  9993,2 53571  53.2186 253.9247 0001936 110.2132 249.9068 15.08833074 92872,6917.902,95.438,541.106,538.427,0.0
53571.0,STARLINK-4584,PAYLOAD,2024-04-23 14:52:35,15.08832763,0.0001737,53.218,249.4689,73.0201,287.0981,0.00031189,4.678e-05,0.0,0 STARLINK-4584,1 53571U 22101AW  24114.61984989  .00004678  00000-0  31189-3 0  9993,2 53571  53.2180 249.4689 0001737  73.0201 287.0981 15.08832763 93713,6917.903,95.438,540.969,538.566,0.0
53571.0,STARLINK-4584,PAYLOAD,2024-04-23 16:27:57,15.08850488,0.0001597,53.2176,249.1653,90.9867,269.1308,0.00034522,5.212e-05,0.0,0 STARLINK-4584,1 53571U 22101AW  24114.68608111  .00005212  00000-0  34522-3 0  9999,2 53571  53.2176 249.1653 0001597  90.9867 269.1308 15.08850488 93039,6917.848,95.437,540.818,538.609,0.0
53571.0,STARLINK-4584,PAYLOAD,2024-04-24 13:07:59,15.08836803,0.0001468,53.2173,245.306,87.7444,272.3716,0.00012582,1.715e-05,0.0,0 STARLINK-4584,1 53571U 22101AW  24115.54721085  .00001715  00000-0  12582-3 0  9997,2 53571  53.2173 245.3060 0001468  87.7444 272.3716 15.08836803 93166,6917.89,95.438,540.771,538.74,0.0
53571.0,STARLINK-4584,PAYLOAD,2024-04-24 16:18:44,15.08854205,0.0001404,53.2175,244.7111,90.2457,269.8695,0.00037945,5.758e-05,0.0,0 STARLINK-4584,1 53571U 22101AW  24115.67968233  .00005758  00000-0  37945-3 0  9990,2 53571  53.2175 244.7111 0001404  90.2457 269.8695 15.08854205 93186,6917.837,95.437,540.673,538.731,0.0
53571.0,STARLINK-4584,PAYLOAD,2024-04-25 12:58:46,15.08843486,0.0001705,53.218,240.8439,74.5138,285.6043,4.3794e-05,4.09e-06,0.0,0 STARLINK-4584,1 53571U 22101AW  24116.54081036  .00000409  00000-0  43794-4 0  9992,2 53571  53.2180 240.8439 0001705  74.5138 285.6043 15.08843486 93314,6917.87,95.437,540.914,538.555,0.0
53571.0,STARLINK-4584,PAYLOAD,2024-04-25 14:34:09,15.08845252,0.0001783,53.2175,240.5462,75.294,284.825,9.6793e-05,1.253e-05,0.0,0 STARLINK-4584,1 53571U 22101AW  24116.60705163  .00001253  00000-0  96793-4 0  9998,2 53571  53.2175 240.5462 0001783  75.2940 284.8250 15.08845252 94018,6917.864,95.437,540.963,538.496,0.0
53571.0,STARLINK-4584,PAYLOAD,2024-04-26 12:49:33,15.08840289,0.0001733,53.2181,236.3851,98.5515,261.5673,0.00011121,1.482e-05,0.0,0 STARLINK-4584,1 53571U 22101AW  24117.53441478  .00001482  00000-0  11121-3 0  9992,2 53571  53.2181 236.3851 0001733  98.5515 261.5673 15.08840289 93465,6917.88,95.438,540.943,538.546,0.0
53571.0,STARLINK-4584,PAYLOAD,2024-04-26 14:24:56,15.08842225,0.0001514,53.2189,236.0874,99.9745,260.1418,0.00014185,1.97e-05,0.0,0 STARLINK-4584,1 53571U 22101AW  24117.60065383  .00001970  00000-0  14185-3 0  9992,2 53571  53.2189 236.0874 0001514  99.9745 260.1418 15.08842225 94164,6917.874,95.437,540.786,538.691,0.0
53571.0,STARLINK-4584,PAYLOAD,2024-04-27 12:40:19,15.08863947,0.0001565,53.2169,231.9229,92.9163,267.2008,0.00049017,7.527e-05,0.0,0 STARLINK-4584,1 53571U 22101AW  24118.52800208  .00007527  00000-0  49017-3 0  9993,2 53571  53.2169 231.9229 0001565  92.9163 267.2008 15.08863947 93619,6917.807,95.436,540.755,538.59,0.0
53571.0,STARLINK-4584,PAYLOAD,2024-04-27 14:15:42,15.08870712,0.000144,53.2155,231.6224,92.382,267.7337,0.00068355,0.00010617,0.0,0 STARLINK-4584,1 53571U 22101AW  24118.59423838  .00010617  00000-0  68355-3 0  9990,2 53571  53.2155 231.6224 0001440  92.3820 267.7337 15.08870712 94318,6917.787,95.436,540.648,538.655,0.0
53571.0,STARLINK-4584,PAYLOAD,2024-04-28 12:31:06,15.08834824,0.000143,53.2174,227.4619,108.6541,251.4606,-0.00014383,-2.576e-05,0.0,0 STARLINK-4584,1 53571U 22101AW  24119.52160877 -.00002576  00000-0 -14383-3 0  9994,2 53571  53.2174 227.4619 0001430 108.6541 251.4606 15.08834824 93761,6917.896,95.438,540.75,538.772,0.0
53571.0,STARLINK-4584,PAYLOAD,2024-04-28 14:06:30,15.08824875,0.0001308,53.2161,227.1648,70.757,289.3564,-0.00039297,-6.534e-05,0.0,0 STARLINK-4584,1 53571U 22101AW  24119.58785157 -.00006534  00000-0 -39297-3 0  9993,2 53571  53.2161 227.1648 0001308  70.7570 289.3564 15.08824875 94467,6917.927,95.439,540.696,538.887,0.0
53571.0,STARLINK-4584,PAYLOAD,2024-04-28 15:41:53,15.08826187,0.0001405,53.2171,226.8677,72.8292,287.2854,-0.00028922,-4.886e-05,0.0,0 STARLINK-4584,1 53571U 22101AW  24119.65409218 -.00004886  00000-0 -28922-3 0  9993,2 53571  53.2171 226.8677 0001405  72.8292 287.2854 15.08826187 94476,6917.923,95.438,540.76,538.816,0.0
53571.0,STARLINK-4584,PAYLOAD,2024-04-29 13:57:17,15.08853683,0.0001429,53.217,222.7051,66.1003,294.0138,0.001187,0.00018661,0.0,0 STARLINK-4584,1 53571U 22101AW  24120.58145580  .00018661  00000-0  11870-2 0  9993,2 53571  53.2170 222.7051 0001429  66.1003 294.0138 15.08853683 93929,6917.839,95.437,540.692,538.715,0.0
53571.0,STARLINK-4584,PAYLOAD,2024-04-30 13:48:03,15.08888105,0.0001377,53.2159,218.2451,64.38,295.7335,0.001129,0.00017749,0.0,0 STARLINK-4584,1 53571U 22101AW  24121.57503536  .00017749  00000-0  11290-2 0  9994,2 53571  53.2159 218.2451 0001377  64.3800 295.7335 15.08888105 94764,6917.733,95.435,540.551,538.646,0.0
53571.0,STARLINK-4584,PAYLOAD,2024-05-01 05:41:54,15.08857796,0.0002358,53.2147,215.2717,77.4076,282.7179,0.00026013,3.856e-05,0.0,0 STARLINK-4584,1 53571U 22101AW  24122.23743744  .00003856  00000-0  26013-3 0  9999,2 53571  53.2147 215.2717 0002358  77.4076 282.7179 15.08857796 94172,6917.826,95.436,541.322,538.06,0.0
53571.0,STARLINK-4584,PAYLOAD,2024-05-02 05:32:43,15.08824357,0.0001542,53.2156,210.8115,81.9824,278.1343,0.00053515,8.236e-05,0.0,0 STARLINK-4584,1 53571U 22101AW  24123.23105375  .00008236  00000-0  53515-3 0  9996,2 53571  53.2156 210.8115 0001542  81.9824 278.1343 15.08824357 94326,6917.928,95.439,540.86,538.726,0.0
53571.0,STARLINK-4584,PAYLOAD,2024-05-02 13:29:38,15.08827648,0.0001307,53.2145,209.3234,84.7143,275.3998,0.00047989,7.355e-05,0.0,0 STARLINK-4584,1 53571U 22101AW  24123.56225643  .00007355  00000-0  47989-3 0  9992,2 53571  53.2145 209.3234 0001307  84.7143 275.3998 15.08827648 95066,6917.918,95.438,540.687,538.879,0.0
53571.0,STARLINK-4584,PAYLOAD,2024-05-03 05:23:29,15.08861854,0.0001337,53.215,206.3493,83.9907,276.1238,0.0010587,0.00016611,0.0,0 STARLINK-4584,1 53571U 22101AW  24124.22464934  .00016611  00000-0  10587-2 0  9992,2 53571  53.2150 206.3493 0001337  83.9907 276.1238 15.08861854 94475,6917.814,95.436,540.604,538.754,0.0
53571.0,STARLINK-4584,PAYLOAD,2024-05-03 11:45:01,15.08884614,0.000133,53.2143,205.1598,82.7698,277.3445,0.0015166,0.00023961,0.0,0 STARLINK-4584,1 53571U 22101AW  24124.48960124  .00023961  00000-0  15166-2 0  9996,2 53571  53.2143 205.1598 0001330  82.7698 277.3445 15.08884614 94514,6917.744,95.435,540.529,538.689,0.0
53571.0,STARLINK-4584,PAYLOAD,2024-05-04 05:14:16,15.08849267,0.0003381,53.2152,201.8884,92.4541,267.6838,0.00067194,0.00010425,0.0,0 STARLINK-4584,1 53571U 22101AW  24125.21824613  .00010425  00000-0  67194-3 0  9990,2 53571  53.2152 201.8884 0003381  92.4541 267.6838 15.08849267 94623,6917.852,95.437,542.056,537.378,0.0
53571.0,STARLINK-4584,PAYLOAD,2024-05-04 11:35:49,15.08803382,0.0001239,53.2158,200.6998,104.1683,255.9447,0.00090672,0.00014157,0.0,0 STARLINK-4584,1 53571U 22101AW  24125.48321146  .00014157  00000-0  90672-3 0  9995,2 53571  53.2158 200.6998 0001239 104.1683 255.9447 15.08803382 94668,6917.992,95.44,540.714,539.0,0.0
53571.0,STARLINK-4584,PAYLOAD,2024-05-05 11:26:37,15.08810782,0.0001205,53.216,196.2386,95.8658,264.2472,5.9979e-05,6.66e-06,0.0,0 STARLINK-4584,1 53571U 22101AW  24126.47682602  .00000666  00000-0  59979-4 0  9998,2 53571  53.2160 196.2386 0001205  95.8658 264.2472 15.08810782 94813,6917.97,95.439,540.668,539.001,0.0
53571.0,STARLINK-4584,PAYLOAD,2024-05-05 14:37:23,15.08808073,0.0001145,53.2159,195.646,93.9703,266.142,5.8959e-05,6.5e-06,0.0,0 STARLINK-4584,1 53571U 22101AW  24126.60930218  .00000650  00000-0  58959-4 0  9992,2 53571  53.2159 195.6460 0001145  93.9703 266.1420 15.08808073 95523,6917.978,95.44,540.635,539.051,0.0
